{"type": "FeatureCollection", "features": [ {"type": "Feature", "properties": {"norad_id": 66583, "name": "STARLINK-35941", "group": "last-30-days", "lat": -30.469846940930342, "lon": 30.905004170409637, "alt_km": 354.2554276669525, "timestamp": "2025-12-04T03:47:53.336900+00:00", "meta": {"OBJECT_NAME": "STARLINK-35941", "OBJECT_ID": "2025-268AC", "EPOCH": "2025-12-03T20:00:01.999008", "MEAN_MOTION": 15.73676994, "ECCENTRICITY": 0.0001248, "INCLINATION": 42.9989, "RA_OF_ASC_NODE": 173.7173, "ARG_OF_PERICENTER": 273.8186, "MEAN_ANOMALY": 272.1157, "EPHEMERIS_TYPE": 0, "CLASSIFICATION_TYPE": "U", "NORAD_CAT_ID": 66583, "ELEMENT_SET_NO": 999, "REV_AT_EPOCH": 323, "BSTAR": -0.014944, "MEAN_MOTION_DOT": -0.01882831, "MEAN_MOTION_DDOT": 0}, "tle": {"line1": "1 66583U 25268AC  25337.83335647 -.01882831  00000+0 -14944-1 0  9995", "line2": "2 66583  42.9989 173.7173 0001248 273.8186 272.1157 15.73676994  3230"}}, "geometry": {"type": "Point", "coordinates": [30.905004170409637, -30.469846940930342]}}, {"type": "Feature", "properties": {"norad_id": 66584, "name": "STARLINK-35939", "group": "last-30-days", "lat": -31.47010069169839, "lon": 32.80954961512133, "alt_km": 354.22880164790513, "timestamp": "2025-12-04T03:47:53.336910+00:00", "meta": {"OBJECT_NAME": "STARLINK-35939", "OBJECT_ID": "2025-268AD", "EPOCH": "2025-12-03T20:00:01.999008", "MEAN_MOTION": 15.73672488, "ECCENTRICITY": 0.0001221, "INCLINATION": 42.9989, "RA_OF_ASC_NODE": 173.7126, "ARG_OF_PERICENTER": 268.1539, "MEAN_ANOMALY": 279.7024, "EPHEMERIS_TYPE": 0, "CLASSIFICATION_TYPE": "U", "NORAD_CAT_ID": 66584, "ELEMENT_SET_NO": 999, "REV_AT_EPOCH": 323, "BSTAR": -0.014913, "MEAN_MOTION_DOT": -0.01879054, "MEAN_MOTION_DDOT": 0}, "tle": {"line1": "1 66584U 25268AD  25337.83335647 -.01879054  00000+0 -14913-1 0  9995", "line2": "2 66584  42.9989 173.7126 0001221 268.1539 279.7024 15.73672488  3239"}}, "geometry": {"type": "Point", "coordinates": [32.80954961512133, -31.47010069169839]}}, {"type": "Feature", "properties": {"norad_id": 66585, "name": "STARLINK-35963", "group": "last-30-days", "lat": -32.435902552630694, "lon": 34.744404386173976, "alt_km": 354.24537165431593, "timestamp": "2025-12-04T03:47:53.336921+00:00", "meta": {"OBJECT_NAME": "STARLINK-35963", "OBJECT_ID": "2025-268AE", "EPOCH": "2025-12-03T20:00:01.999008", "MEAN_MOTION": 15.73682308, "ECCENTRICITY": 0.0001461, "INCLINATION": 42.9987, "RA_OF_ASC_NODE": 173.7086, "ARG_OF_PERICENTER": 275.2461, "MEAN_ANOMALY": 274.5173, "EPHEMERIS_TYPE": 0, "CLASSIFICATION_TYPE": "U", "NORAD_CAT_ID": 66585, "ELEMENT_SET_NO": 999, "REV_AT_EPOCH": 323, "BSTAR": -0.015006, "MEAN_MOTION_DOT": -0.01890103, "MEAN_MOTION_DDOT": 0}, "tle": {"line1": "1 66585U 25268AE  25337.83335647 -.01890103  00000+0 -15006-1 0  9998", "line2": "2 66585  42.9987 173.7086 0001461 275.2461 274.5173 15.73682308  3232"}}, "geometry": {"type": "Point", "coordinates": [34.744404386173976, -32.435902552630694]}}, {"type": "Feature", "properties": {"norad_id": 66586, "name": "TJS-21", "group": "last-30-days", "lat": 34.89204318342075, "lon": -153.66158613517013, "alt_km": 40090.6184306654, "timestamp": "2025-12-04T03:47:53.336938+00:00", "meta": {"OBJECT_NAME": "TJS-21", "OBJECT_ID": "2025-269A", "EPOCH": "2025-11-22T00:38:56.616288", "MEAN_MOTION": 2.0099221, "ECCENTRICITY": 0.75179873, "INCLINATION": 51.0366, "RA_OF_ASC_NODE": 174.7096, "ARG_OF_PERICENTER": 225.0489, "MEAN_ANOMALY": 41.6572, "EPHEMERIS_TYPE": 0, "CLASSIFICATION_TYPE": "U", "NORAD_CAT_ID": 66586, "ELEMENT_SET_NO": 999, "REV_AT_EPOCH": 2, "BSTAR": 0.00053569978, "MEAN_MOTION_DOT": 3.197e-05, "MEAN_MOTION_DDOT": 0}, "tle": {"line1": "1 66586U 25269A   25326.02704417  .00003197  00000+0  53570-3 0  9990", "line2": "2 66586  51.0366 174.7096 7517987 225.0489  41.6572  2.00992210    24"}}, "geometry": {"type": "Point", "coordinates": [-153.66158613517013, 34.89204318342075]}}, {"type": "Feature", "properties": {"norad_id": 66587, "name": "CZ-3B R/B", "group": "last-30-days", "lat": 40.20506313183683, "lon": -145.7722705231196, "alt_km": 38349.428603402404, "timestamp": "2025-12-04T03:47:53.336957+00:00", "meta": {"OBJECT_NAME": "CZ-3B R/B", "OBJECT_ID": "2025-269B", "EPOCH": "2025-12-02T10:16:46.436736", "MEAN_MOTION": 2.02231819, "ECCENTRICITY": 0.7520348, "INCLINATION": 51.3575, "RA_OF_ASC_NODE": 172.0321, "ARG_OF_PERICENTER": 226.8728, "MEAN_ANOMALY": 39.3228, "EPHEMERIS_TYPE": 0, "CLASSIFICATION_TYPE": "U", "NORAD_CAT_ID": 66587, "ELEMENT_SET_NO": 999, "REV_AT_EPOCH": 24, "BSTAR": 0.0019543, "MEAN_MOTION_DOT": 0.00047329, "MEAN_MOTION_DDOT": -2.456e-07}, "tle": {"line1": "1 66587U 25269B   25336.42831524  .00047329 -24560-6  19543-2 0  9997", "line2": "2 66587  51.3575 172.0321 7520348 226.8728  39.3228  2.02231819   241"}}, "geometry": {"type": "Point", "coordinates": [-145.7722705231196, 40.20506313183683]}}, {"type": "Feature", "properties": {"norad_id": 66588, "name": "STARLINK-36076", "group": "last-30-days", "lat": -14.480133271448771, "lon": -132.36238078351076, "alt_km": 334.69641418762967, "timestamp": "2025-12-04T03:47:53.336968+00:00", "meta": {"OBJECT_NAME": "STARLINK-36076", "OBJECT_ID": "2025-270A", "EPOCH": "2025-12-03T18:45:54.870912", "MEAN_MOTION": 15.76501867, "ECCENTRICITY": 0.0011682, "INCLINATION": 42.9973, "RA_OF_ASC_NODE": 246.0174, "ARG_OF_PERICENTER": 348.8653, "MEAN_ANOMALY": 11.1957, "EPHEMERIS_TYPE": 0, "CLASSIFICATION_TYPE": "U", "NORAD_CAT_ID": 66588, "ELEMENT_SET_NO": 999, "REV_AT_EPOCH": 294, "BSTAR": -0.0017001, "MEAN_MOTION_DOT": -0.00271785, "MEAN_MOTION_DDOT": 0}, "tle": {"line1": "1 66588U 25270A   25337.78188508 -.00271785  00000+0 -17001-2 0  9996", "line2": "2 66588  42.9973 246.0174 0011682 348.8653  11.1957 15.76501867  2943"}}, "geometry": {"type": "Point", "coordinates": [-132.36238078351076, -14.480133271448771]}}, {"type": "Feature", "properties": {"norad_id": 66589, "name": "STARLINK-35447", "group": "last-30-days", "lat": -12.637051078607993, "lon": -130.20087118320964, "alt_km": 345.6082178851166, "timestamp": "2025-12-04T03:47:53.336978+00:00", "meta": {"OBJECT_NAME": "STARLINK-35447", "OBJECT_ID": "2025-270B", "EPOCH": "2025-12-03T08:00:01.999008", "MEAN_MOTION": 15.77723151, "ECCENTRICITY": 0.0001715, "INCLINATION": 42.9988, "RA_OF_ASC_NODE": 248.7369, "ARG_OF_PERICENTER": 264.208, "MEAN_ANOMALY": 70.3484, "EPHEMERIS_TYPE": 0, "CLASSIFICATION_TYPE": "U", "NORAD_CAT_ID": 66589, "ELEMENT_SET_NO": 999, "REV_AT_EPOCH": 299, "BSTAR": -0.010389, "MEAN_MOTION_DOT": -0.01571882, "MEAN_MOTION_DDOT": 0}, "tle": {"line1": "1 66589U 25270B   25337.33335647 -.01571882  00000+0 -10389-1 0  9999", "line2": "2 66589  42.9988 248.7369 0001715 264.2080  70.3484 15.77723151  2996"}}, "geometry": {"type": "Point", "coordinates": [-130.20087118320964, -12.637051078607993]}}, {"type": "Feature", "properties": {"norad_id": 66590, "name": "STARLINK-35429", "group": "last-30-days", "lat": -13.902648323695866, "lon": -131.67800683537544, "alt_km": 345.55437308961245, "timestamp": "2025-12-04T03:47:53.336988+00:00", "meta": {"OBJECT_NAME": "STARLINK-35429", "OBJECT_ID": "2025-270C", "EPOCH": "2025-12-03T08:00:01.999008", "MEAN_MOTION": 15.77742488, "ECCENTRICITY": 0.0001817, "INCLINATION": 42.9987, "RA_OF_ASC_NODE": 248.7421, "ARG_OF_PERICENTER": 266.4101, "MEAN_ANOMALY": 66.1817, "EPHEMERIS_TYPE": 0, "CLASSIFICATION_TYPE": "U", "NORAD_CAT_ID": 66590, "ELEMENT_SET_NO": 999, "REV_AT_EPOCH": 299, "BSTAR": -0.010414, "MEAN_MOTION_DOT": -0.01576532, "MEAN_MOTION_DDOT": 0}, "tle": {"line1": "1 66590U 25270C   25337.33335647 -.01576532  00000+0 -10414-1 0  9997", "line2": "2 66590  42.9987 248.7421 0001817 266.4101  66.1817 15.77742488  2994"}}, "geometry": {"type": "Point", "coordinates": [-131.67800683537544, -13.902648323695866]}}, {"type": "Feature", "properties": {"norad_id": 66591, "name": "STARLINK-36058", "group": "last-30-days", "lat": -10.092213039059478, "lon": -127.29897724104757, "alt_km": 341.0887229228538, "timestamp": "2025-12-04T03:47:53.336999+00:00", "meta": {"OBJECT_NAME": "STARLINK-36058", "OBJECT_ID": "2025-270D", "EPOCH": "2025-12-03T18:44:24.400608", "MEAN_MOTION": 15.76720716, "ECCENTRICITY": 0.0005641, "INCLINATION": 42.9978, "RA_OF_ASC_NODE": 246.01, "ARG_OF_PERICENTER": 235.3743, "MEAN_ANOMALY": 124.6595, "EPHEMERIS_TYPE": 0, "CLASSIFICATION_TYPE": "U", "NORAD_CAT_ID": 66591, "ELEMENT_SET_NO": 999, "REV_AT_EPOCH": 294, "BSTAR": 0.0019961, "MEAN_MOTION_DOT": 0.00343594, "MEAN_MOTION_DDOT": 0}, "tle": {"line1": "1 66591U 25270D   25337.78083797  .00343594  00000+0  19961-2 0  9997", "line2": "2 66591  42.9978 246.0100 0005641 235.3743 124.6595 15.76720716  2943"}}, "geometry": {"type": "Point", "coordinates": [-127.29897724104757, -10.092213039059478]}}, {"type": "Feature", "properties": {"norad_id": 66592, "name": "STARLINK-36066", "group": "last-30-days", "lat": -10.100244935243682, "lon": -127.30816706201865, "alt_km": 345.545323848879, "timestamp": "2025-12-04T03:47:53.337008+00:00", "meta": {"OBJECT_NAME": "STARLINK-36066", "OBJECT_ID": "2025-270E", "EPOCH": "2025-12-03T08:00:01.999008", "MEAN_MOTION": 15.77664507, "ECCENTRICITY": 0.0001877, "INCLINATION": 42.9989, "RA_OF_ASC_NODE": 248.7271, "ARG_OF_PERICENTER": 268.2079, "MEAN_ANOMALY": 70.3939, "EPHEMERIS_TYPE": 0, "CLASSIFICATION_TYPE": "U", "NORAD_CAT_ID": 66592, "ELEMENT_SET_NO": 999, "REV_AT_EPOCH": 279, "BSTAR": -0.010569, "MEAN_MOTION_DOT": -0.015921, "MEAN_MOTION_DDOT": 0}, "tle": {"line1": "1 66592U 25270E   25337.33335647 -.01592100  00000+0 -10569-1 0  9999", "line2": "2 66592  42.9989 248.7271 0001877 268.2079  70.3939 15.77664507  2796"}}, "geometry": {"type": "Point", "coordinates": [-127.30816706201865, -10.100244935243682]}}]}